{
  "type": "FeatureCollection",
  "features": [
    {
      "type": "Feature",
      "properties": {
        "norad_id": 43823,
        "name": "GEO-KOMPSAT-2A",
        "group": "weather",
        "lat": 0.024719878589837468,
        "lon": -158.49582691598562,
        "alt_km": 35786.359834182986,
        "timestamp": "2025-12-10T23:33:12.473338+00:00",
        "meta_object_name": "GEO-KOMPSAT-2A",
        "meta_object_id": "2018-100A",
        "meta_epoch": "2025-12-09T23:29:38.510880",
        "meta_mean_motion": 1.00269688,
        "meta_eccentricity": 1.166e-05,
        "meta_inclination": 0.0417,
        "meta_ra_of_asc_node": 144.825,
        "meta_arg_of_pericenter": 34.8694,
        "meta_mean_anomaly": 19.9414,
        "meta_ephemeris_type": 0,
        "meta_classification_type": "U",
        "meta_norad_cat_id": 43823,
        "meta_element_set_no": 999,
        "meta_rev_at_epoch": 2573,
        "meta_bstar": 0,
        "meta_mean_motion_dot": -3.41e-06,
        "meta_mean_motion_ddot": 0,
        "tle_line1": "1 43823U 18100A   25343.97891795 -.00000341  00000+0  00000+0 0  9999",
        "tle_line2": "2 43823   0.0417 144.8250 0000116  34.8694  19.9414  1.00269688 25735"
      },
      "geometry": {
        "type": "Point",
        "coordinates": [
          -158.49582691598562,
          0.024719878589837468
        ]
      }
    },
    {
      "type": "Feature",
      "properties": {
        "norad_id": 44387,
        "name": "METEOR-M2 2",
        "group": "weather",
        "lat": 4.0721424620503885,
        "lon": -35.95084273636001,
        "alt_km": 813.9410037637454,
        "timestamp": "2025-12-10T23:33:12.473348+00:00",
        "meta_object_name": "METEOR-M2 2",
        "meta_object_id": "2019-038A",
        "meta_epoch": "2025-12-10T13:25:05.421792",
        "meta_mean_motion": 14.24290285,
        "meta_eccentricity": 0.00011604,
        "meta_inclination": 98.8973,
        "meta_ra_of_asc_node": 324.2607,
        "meta_arg_of_pericenter": 151.8622,
        "meta_mean_anomaly": 208.2619,
        "meta_ephemeris_type": 0,
        "meta_classification_type": "U",
        "meta_norad_cat_id": 44387,
        "meta_element_set_no": 999,
        "meta_rev_at_epoch": 33444,
        "meta_bstar": 0.00017698764,
        "meta_mean_motion_dot": 3.63e-06,
        "meta_mean_motion_ddot": 0,
        "tle_line1": "1 44387U 19038A   25344.55909053  .00000363  00000+0  17699-3 0  9997",
        "tle_line2": "2 44387  98.8973 324.2607 0001160 151.8622 208.2619 14.24290285334442"
      },
      "geometry": {
        "type": "Point",
        "coordinates": [
          -35.95084273636001,
          4.0721424620503885
        ]
      }
    },
    {
      "type": "Feature",
      "properties": {
        "norad_id": 47719,
        "name": "ARKTIKA-M 1",
        "group": "weather",
        "lat": 44.41541492085041,
        "lon": -125.41041152626921,
        "alt_km": 22543.313112278902,
        "timestamp": "2025-12-10T23:33:12.473367+00:00",
        "meta_object_name": "ARKTIKA-M 1",
        "meta_object_id": "2021-016A",
        "meta_epoch": "2025-12-09T14:03:23.859648",
        "meta_mean_motion": 2.00631311,
        "meta_eccentricity": 0.7202538,
        "meta_inclination": 63.1769,
        "meta_ra_of_asc_node": 84.4506,
        "meta_arg_of_pericenter": 269.1116,
        "meta_mean_anomaly": 15.6235,
        "meta_ephemeris_type": 0,
        "meta_classification_type": "U",
        "meta_norad_cat_id": 47719,
        "meta_element_set_no": 999,
        "meta_rev_at_epoch": 3498,
        "meta_bstar": 0,
        "meta_mean_motion_dot": -6.1e-07,
        "meta_mean_motion_ddot": 0,
        "tle_line1": "1 47719U 21016A   25343.58569282 -.00000061  00000+0  00000+0 0  9996",
        "tle_line2": "2 47719  63.1769  84.4506 7202538 269.1116  15.6235  2.00631311 34985"
      },
      "geometry": {
        "type": "Point",
        "coordinates": [
          -125.41041152626921,
          44.41541492085041
        ]
      }
    },
    {
      "type": "Feature",
      "properties": {
        "norad_id": 49008,
        "name": "FENGYUN 3E",
        "group": "weather",
        "lat": -8.565868386056811,
        "lon": -13.148204888966387,
        "alt_km": 829.5501226750621,
        "timestamp": "2025-12-10T23:33:12.473379+00:00",
        "meta_object_name": "FENGYUN 3E",
        "meta_object_id": "2021-062A",
        "meta_epoch": "2025-12-10T13:26:48.368256",
        "meta_mean_motion": 14.19880039,
        "meta_eccentricity": 5.992e-05,
        "meta_inclination": 98.7475,
        "meta_ra_of_asc_node": 345.1068,
        "meta_arg_of_pericenter": 285.4614,
        "meta_mean_anomaly": 74.6496,
        "meta_ephemeris_type": 0,
        "meta_classification_type": "U",
        "meta_norad_cat_id": 49008,
        "meta_element_set_no": 999,
        "meta_rev_at_epoch": 22981,
        "meta_bstar": 0.00014920959,
        "meta_mean_motion_dot": 2.73e-06,
        "meta_mean_motion_ddot": 0,
        "tle_line1": "1 49008U 21062A   25344.56028204  .00000273  00000+0  14921-3 0  9998",
        "tle_line2": "2 49008  98.7475 345.1068 0000599 285.4614  74.6496 14.19880039229814"
      },
      "geometry": {
        "type": "Point",
        "coordinates": [
          -13.148204888966387,
          -8.565868386056811
        ]
      }
    },
    {
      "type": "Feature",
      "properties": {
        "norad_id": 51850,
        "name": "GOES 18",
        "group": "weather",
        "lat": -0.0031230167373272498,
        "lon": -63.75559257217445,
        "alt_km": 35783.156018844595,
        "timestamp": "2025-12-10T23:33:12.473390+00:00",
        "meta_object_name": "GOES 18",
        "meta_object_id": "2022-021A",
        "meta_epoch": "2025-12-10T13:22:25.194720",
        "meta_mean_motion": 1.00271591,
        "meta_eccentricity": 7.055e-05,
        "meta_inclination": 0.0068,
        "meta_ra_of_asc_node": 261.5315,
        "meta_arg_of_pericenter": 43.386,
        "meta_mean_anomaly": 198.2167,
        "meta_ephemeris_type": 0,
        "meta_classification_type": "U",
        "meta_norad_cat_id": 51850,
        "meta_element_set_no": 999,
        "meta_rev_at_epoch": 470,
        "meta_bstar": 0,
        "meta_mean_motion_dot": 1.01e-06,
        "meta_mean_motion_ddot": 0,
        "tle_line1": "1 51850U 22021A   25344.55723605  .00000101  00000+0  00000+0 0  9997",
        "tle_line2": "2 51850   0.0068 261.5315 0000705  43.3860 198.2167  1.00271591  4705"
      },
      "geometry": {
        "type": "Point",
        "coordinates": [
          -63.75559257217445,
          -0.0031230167373272498
        ]
      }
    },
    {
      "type": "Feature",
      "properties": {
        "norad_id": 54234,
        "name": "NOAA 21 (JPSS-2)",
        "group": "weather",
        "lat": -0.03640841930530302,
        "lon": -78.68284243190573,
        "alt_km": 828.6337031020375,
        "timestamp": "2025-12-10T23:33:12.473399+00:00",
        "meta_object_name": "NOAA 21 (JPSS-2)",
        "meta_object_id": "2022-150A",
        "meta_epoch": "2025-12-10T15:05:43.222272",
        "meta_mean_motion": 14.19523363,
        "meta_eccentricity": 0.0002294,
        "meta_inclination": 98.7459,
        "meta_ra_of_asc_node": 280.9636,
        "meta_arg_of_pericenter": 42.0678,
        "meta_mean_anomaly": 318.0674,
        "meta_ephemeris_type": 0,
        "meta_classification_type": "U",
        "meta_norad_cat_id": 54234,
        "meta_element_set_no": 999,
        "meta_rev_at_epoch": 15979,
        "meta_bstar": 0.00010946844,
        "meta_mean_motion_dot": 1.87e-06,
        "meta_mean_motion_ddot": 0,
        "tle_line1": "1 54234U 22150A   25344.62897248  .00000187  00000+0  10947-3 0  9991",
        "tle_line2": "2 54234  98.7459 280.9636 0002294  42.0678 318.0674 14.19523363159797"
      },
      "geometry": {
        "type": "Point",
        "coordinates": [
          -78.68284243190573,
          -0.03640841930530302
        ]
      }
    },
    {
      "type": "Feature",
      "properties": {
        "norad_id": 54743,
        "name": "METEOSAT-12 (MTG-I1)",
        "group": "weather",
        "lat": 0.5419936701250533,
        "lon": 73.00855225078814,
        "alt_km": 35794.96862353083,
        "timestamp": "2025-12-10T23:33:12.473410+00:00",
        "meta_object_name": "METEOSAT-12 (MTG-I1)",
        "meta_object_id": "2022-170C",
        "meta_epoch": "2025-12-10T06:29:38.861952",
        "meta_mean_motion": 1.00267149,
        "meta_eccentricity": 0.00018354,
        "meta_inclination": 0.6844,
        "meta_ra_of_asc_node": 23.1554,
        "meta_arg_of_pericenter": 238.1267,
        "meta_mean_anomaly": 275.1497,
        "meta_ephemeris_type": 0,
        "meta_classification_type": "U",
        "meta_norad_cat_id": 54743,
        "meta_element_set_no": 999,
        "meta_rev_at_epoch": 1108,
        "meta_bstar": 0,
        "meta_mean_motion_dot": -4e-08,
        "meta_mean_motion_ddot": 0,
        "tle_line1": "1 54743U 22170C   25344.27058868 -.00000004  00000+0  00000+0 0  9990",
        "tle_line2": "2 54743   0.6844  23.1554 0001835 238.1267 275.1497  1.00267149 11088"
      },
      "geometry": {
        "type": "Point",
        "coordinates": [
          73.00855225078814,
          0.5419936701250533
        ]
      }
    }
  ]
}